PANDORA
1 67395U 80229J   26138.53424769  .00000000  00000-0  37770-3 0    01
2 67395  97.8012 137.6514 0004533 213.5913 245.2221 14.87985238    08
